{
  "type": "FeatureCollection",
  "features": [
    {
      "type": "Feature",
      "properties": {
        "norad_id": 28899,
        "name": "INMARSAT 4-F2 (SOUTHPAN/PRN 122)",
        "group": "gnss",
        "lat": -4.47908166675842,
        "lon": -69.23104330035842,
        "alt_km": 35774.87380789929,
        "timestamp": "2025-12-05T04:52:15.537800+00:00",
        "meta_object_name": "INMARSAT 4-F2 (SOUTHPAN/PRN 122)",
        "meta_object_id": "2005-044A",
        "meta_epoch": "2025-12-04T14:24:30.690144",
        "meta_mean_motion": 1.0027192,
        "meta_eccentricity": 0.0003458,
        "meta_inclination": 4.841,
        "meta_ra_of_asc_node": 43.6637,
        "meta_arg_of_pericenter": 210.8827,
        "meta_mean_anomaly": 178.752,
        "meta_ephemeris_type": 0,
        "meta_classification_type": "U",
        "meta_norad_cat_id": 28899,
        "meta_element_set_no": 999,
        "meta_rev_at_epoch": 7357,
        "meta_bstar": 0,
        "meta_mean_motion_dot": -2.49e-06,
        "meta_mean_motion_ddot": 0,
        "tle_line1": "1 28899U 05044A   25338.60035521 -.00000249  00000+0  00000+0 0  9996",
        "tle_line2": "2 28899   4.8410  43.6637 0003458 210.8827 178.7520  1.00271920 73576"
      },
      "geometry": {
        "type": "Point",
        "coordinates": [
          -69.23104330035842,
          -4.47908166675842
        ]
      }
    },
    {
      "type": "Feature",
      "properties": {
        "norad_id": 29486,
        "name": "GPS BIIRM-2 (PRN 31)",
        "group": "gnss",
        "lat": 48.33981601873014,
        "lon": -73.81142710602506,
        "alt_km": 20040.300933476443,
        "timestamp": "2025-12-05T04:52:15.537812+00:00",
        "meta_object_name": "GPS BIIRM-2 (PRN 31)",
        "meta_object_id": "2006-042A",
        "meta_epoch": "2025-12-04T13:13:00.041088",
        "meta_mean_motion": 2.00554363,
        "meta_eccentricity": 0.0107357,
        "meta_inclination": 54.6929,
        "meta_ra_of_asc_node": 159.0658,
        "meta_arg_of_pericenter": 51.7626,
        "meta_mean_anomaly": 309.8697,
        "meta_ephemeris_type": 0,
        "meta_classification_type": "U",
        "meta_norad_cat_id": 29486,
        "meta_element_set_no": 999,
        "meta_rev_at_epoch": 14049,
        "meta_bstar": 0,
        "meta_mean_motion_dot": 8.8e-07,
        "meta_mean_motion_ddot": 0,
        "tle_line1": "1 29486U 06042A   25338.55069492  .00000088  00000+0  00000+0 0  9996",
        "tle_line2": "2 29486  54.6929 159.0658 0107357  51.7626 309.8697  2.00554363140498"
      },
      "geometry": {
        "type": "Point",
        "coordinates": [
          -73.81142710602506,
          48.33981601873014
        ]
      }
    },
    {
      "type": "Feature",
      "properties": {
        "norad_id": 29601,
        "name": "GPS BIIRM-3 (PRN 12)",
        "group": "gnss",
        "lat": 7.619166014642318,
        "lon": 36.326370316815314,
        "alt_km": 20151.64693148288,
        "timestamp": "2025-12-05T04:52:15.537824+00:00",
        "meta_object_name": "GPS BIIRM-3 (PRN 12)",
        "meta_object_id": "2006-052A",
        "meta_epoch": "2025-12-03T23:20:07.183104",
        "meta_mean_motion": 2.00572838,
        "meta_eccentricity": 0.0087566,
        "meta_inclination": 54.9725,
        "meta_ra_of_asc_node": 221.7462,
        "meta_arg_of_pericenter": 87.3484,
        "meta_mean_anomaly": 273.7439,
        "meta_ephemeris_type": 0,
        "meta_classification_type": "U",
        "meta_norad_cat_id": 29601,
        "meta_element_set_no": 999,
        "meta_rev_at_epoch": 13949,
        "meta_bstar": 0,
        "meta_mean_motion_dot": 6.3e-07,
        "meta_mean_motion_ddot": 0,
        "tle_line1": "1 29601U 06052A   25337.97230536  .00000063  00000+0  00000+0 0  9993",
        "tle_line2": "2 29601  54.9725 221.7462 0087566  87.3484 273.7439  2.00572838139498"
      },
      "geometry": {
        "type": "Point",
        "coordinates": [
          36.326370316815314,
          7.619166014642318
        ]
      }
    },
    {
      "type": "Feature",
      "properties": {
        "norad_id": 32260,
        "name": "GPS BIIRM-4 (PRN 15)",
        "group": "gnss",
        "lat": -39.16683640808925,
        "lon": 51.71991782319144,
        "alt_km": 20499.50432328124,
        "timestamp": "2025-12-05T04:52:15.537837+00:00",
        "meta_object_name": "GPS BIIRM-4 (PRN 15)",
        "meta_object_id": "2007-047A",
        "meta_epoch": "2025-12-02T18:46:05.230272",
        "meta_mean_motion": 2.00564824,
        "meta_eccentricity": 0.01643753,
        "meta_inclination": 53.9483,
        "meta_ra_of_asc_node": 88.1698,
        "meta_arg_of_pericenter": 85.1293,
        "meta_mean_anomaly": 276.722,
        "meta_ephemeris_type": 0,
        "meta_classification_type": "U",
        "meta_norad_cat_id": 32260,
        "meta_element_set_no": 999,
        "meta_rev_at_epoch": 13287,
        "meta_bstar": 0,
        "meta_mean_motion_dot": -1.7e-07,
        "meta_mean_motion_ddot": 0,
        "tle_line1": "1 32260U 07047A   25336.78200498 -.00000017  00000+0  00000+0 0  9995",
        "tle_line2": "2 32260  53.9483  88.1698 0164375  85.1293 276.7220  2.00564824132879"
      },
      "geometry": {
        "type": "Point",
        "coordinates": [
          51.71991782319144,
          -39.16683640808925
        ]
      }
    },
    {
      "type": "Feature",
      "properties": {
        "norad_id": 32275,
        "name": "COSMOS 2433 (720)",
        "group": "gnss",
        "lat": 58.74491160614991,
        "lon": 10.603576745026043,
        "alt_km": 19137.400359031144,
        "timestamp": "2025-12-05T04:52:15.537850+00:00",
        "meta_object_name": "COSMOS 2433 (720)",
        "meta_object_id": "2007-052A",
        "meta_epoch": "2025-12-03T16:54:04.921632",
        "meta_mean_motion": 2.13103907,
        "meta_eccentricity": 0.00055343,
        "meta_inclination": 65.6881,
        "meta_ra_of_asc_node": 322.5094,
        "meta_arg_of_pericenter": 252.6226,
        "meta_mean_anomaly": 107.3209,
        "meta_ephemeris_type": 0,
        "meta_classification_type": "U",
        "meta_norad_cat_id": 32275,
        "meta_element_set_no": 999,
        "meta_rev_at_epoch": 14089,
        "meta_bstar": 0,
        "meta_mean_motion_dot": -4.1e-07,
        "meta_mean_motion_ddot": 0,
        "tle_line1": "1 32275U 07052A   25337.70422363 -.00000041  00000+0  00000+0 0  9994",
        "tle_line2": "2 32275  65.6881 322.5094 0005534 252.6226 107.3209  2.13103907140892"
      },
      "geometry": {
        "type": "Point",
        "coordinates": [
          10.603576745026043,
          58.74491160614991
        ]
      }
    },
    {
      "type": "Feature",
      "properties": {
        "norad_id": 32276,
        "name": "COSMOS 2432 (719)",
        "group": "gnss",
        "lat": 13.035271708026322,
        "lon": -31.422935646617493,
        "alt_km": 19115.48067874799,
        "timestamp": "2025-12-05T04:52:15.537862+00:00",
        "meta_object_name": "COSMOS 2432 (719)",
        "meta_object_id": "2007-052B",
        "meta_epoch": "2025-12-04T17:08:15.006048",
        "meta_mean_motion": 2.13103047,
        "meta_eccentricity": 0.0011258,
        "meta_inclination": 65.7035,
        "meta_ra_of_asc_node": 322.5994,
        "meta_arg_of_pericenter": 311.684,
        "meta_mean_anomaly": 47.4656,
        "meta_ephemeris_type": 0,
        "meta_classification_type": "U",
        "meta_norad_cat_id": 32276,
        "meta_element_set_no": 999,
        "meta_rev_at_epoch": 14093,
        "meta_bstar": 0,
        "meta_mean_motion_dot": -4.6e-07,
        "meta_mean_motion_ddot": 0,
        "tle_line1": "1 32276U 07052B   25338.71406257 -.00000046  00000+0  00000+0 0  9996",
        "tle_line2": "2 32276  65.7035 322.5994 0011258 311.6840  47.4656  2.13103047140932"
      },
      "geometry": {
        "type": "Point",
        "coordinates": [
          -31.422935646617493,
          13.035271708026322
        ]
      }
    },
    {
      "type": "Feature",
      "properties": {
        "norad_id": 32384,
        "name": "GPS BIIRM-5 (PRN 29)",
        "group": "gnss",
        "lat": 53.58030782466064,
        "lon": -7.7147609596411515,
        "alt_km": 20166.0722941286,
        "timestamp": "2025-12-05T04:52:15.537874+00:00",
        "meta_object_name": "GPS BIIRM-5 (PRN 29)",
        "meta_object_id": "2007-062A",
        "meta_epoch": "2025-12-02T20:24:02.738880",
        "meta_mean_motion": 2.00576658,
        "meta_eccentricity": 0.00322118,
        "meta_inclination": 55.191,
        "meta_ra_of_asc_node": 282.0427,
        "meta_arg_of_pericenter": 162.849,
        "meta_mean_anomaly": 16.9412,
        "meta_ephemeris_type": 0,
        "meta_classification_type": "U",
        "meta_norad_cat_id": 32384,
        "meta_element_set_no": 999,
        "meta_rev_at_epoch": 13157,
        "meta_bstar": 0,
        "meta_mean_motion_dot": -4.3e-07,
        "meta_mean_motion_ddot": 0,
        "tle_line1": "1 32384U 07062A   25336.85003170 -.00000043  00000+0  00000+0 0  9994",
        "tle_line2": "2 32384  55.1910 282.0427 0032211 162.8490  16.9412  2.00576658131576"
      },
      "geometry": {
        "type": "Point",
        "coordinates": [
          -7.7147609596411515,
          53.58030782466064
        ]
      }
    }
  ]
}